STARLINK-35721          
1 67046U 25294S   26003.50312309  .00165889  00000+0  27745-2 0  9992
2 67046  42.9997  51.0751 0001063 270.7577  89.3161 15.50573724  4774
STARLINK-35779          
1 67047U 25294T   26004.59819343  .00252193  00000+0  41128-2 0  9999
2 67047  42.9995  44.6711 0002358 346.5501  13.5296 15.50950794  4947
STARLINK-35905          
1 67048U 25294U   26004.58335648  .00097283  00000+0  23113-2 0  9991
2 67048  43.0002  44.9105 0000822 293.3871 281.4365 15.40637187  3884
STARLINK-35877          
1 67049U 25294V   26004.58335648  .00097524  00000+0  23165-2 0  9997
2 67049  43.0004  45.0020 0001396 258.0128 279.4804 15.40643372  3962
STARLINK-36078          
1 67050U 25294W   26004.46797869  .00048742  00000+0  83105-3 0  9992
2 67050  43.0002  45.4137 0001786 273.5387  86.5269 15.50593787  4921
STARLINK-35706          
1 67051U 25294X   26004.40321920  .00091556  00000+0  15462-2 0  9999
2 67051  43.0004  45.7872 0003079 291.1233  68.9298 15.50613829  4911
STARLINK-35720          
1 67052U 25294Y   26004.59612415  .00083224  00000+0  14085-2 0  9995
2 67052  43.0000  44.6549 0001006 265.2838  94.7907 15.50596070  4943
STARLINK-35739          
1 67053U 25294Z   26004.59577270  .00073101  00000+0  12368-2 0  9990
2 67053  43.0001  44.6519 0002508 246.4148 113.6449 15.50656630  4946
STARLINK-35754          
1 67054U 25294AA  26004.59543820  .00134531  00000+0  22684-2 0  9992
2 67054  43.0001  44.6495 0009614 190.5938 169.4721 15.50428046  4941
STARLINK-35790          
1 67055U 25294AB  26003.50003246  .00193555  00000+0  32163-2 0  9990
2 67055  43.0001  51.0490 0002656 273.9627  86.0930 15.50646640  4778
STARLINK-36143          
1 67056U 25294AC  26002.27516508 -.00184142  00000+0 -32411-2 0  9994
2 67056  43.0002  58.1981 0001273 265.4668  94.6047 15.50285346  4583
STARLINK-36141          
1 67057U 25294AD  26002.59755301  .00045612  00000+0  78063-3 0  9996
2 67057  43.0006  56.3183 0001393 271.7628  88.3073 15.50512095  4630
